{
  "type": "FeatureCollection",
  "features": [
    {
      "type": "Feature",
      "properties": {
        "norad_id": 37961,
        "name": "COSMOS 2251 DEB",
        "group": "cosmos-2251-debris",
        "lat": 58.896330254772636,
        "lon": 158.51058892050074,
        "alt_km": 717.572278222031,
        "timestamp": "2025-12-16T08:59:43.559464+00:00",
        "meta_object_name": "COSMOS 2251 DEB",
        "meta_object_id": "1993-036BPL",
        "meta_epoch": "2025-12-13T03:18:27.462240",
        "meta_mean_motion": 14.57979799,
        "meta_eccentricity": 0.00406759,
        "meta_inclination": 74.0407,
        "meta_ra_of_asc_node": 136.3488,
        "meta_arg_of_pericenter": 216.8805,
        "meta_mean_anomaly": 142.9561,
        "meta_ephemeris_type": 0,
        "meta_classification_type": "U",
        "meta_norad_cat_id": 37961,
        "meta_element_set_no": 999,
        "meta_rev_at_epoch": 80071,
        "meta_bstar": 0.001729191,
        "meta_mean_motion_dot": 8.011e-05,
        "meta_mean_motion_ddot": 0,
        "tle_line1": "1 37961U 93036BPL 25347.13781785  .00008011  00000+0  17292-2 0  9990",
        "tle_line2": "2 37961  74.0407 136.3488 0040675 216.8805 142.9561 14.57979799800716"
      },
      "geometry": {
        "type": "Point",
        "coordinates": [
          158.51058892050074,
          58.896330254772636
        ]
      }
    },
    {
      "type": "Feature",
      "properties": {
        "norad_id": 37966,
        "name": "COSMOS 2251 DEB",
        "group": "cosmos-2251-debris",
        "lat": 14.736296479427343,
        "lon": 38.65145593699751,
        "alt_km": 524.2260141576035,
        "timestamp": "2025-12-16T08:59:43.559474+00:00",
        "meta_object_name": "COSMOS 2251 DEB",
        "meta_object_id": "1993-036BPR",
        "meta_epoch": "2025-12-13T08:51:38.453184",
        "meta_mean_motion": 15.12754556,
        "meta_eccentricity": 0.00088035,
        "meta_inclination": 73.9781,
        "meta_ra_of_asc_node": 229.2381,
        "meta_arg_of_pericenter": 105.8293,
        "meta_mean_anomaly": 254.3871,
        "meta_ephemeris_type": 0,
        "meta_classification_type": "U",
        "meta_norad_cat_id": 37966,
        "meta_element_set_no": 999,
        "meta_rev_at_epoch": 85352,
        "meta_bstar": 0.0051051315,
        "meta_mean_motion_dot": 0.00090719,
        "meta_mean_motion_ddot": 0,
        "tle_line1": "1 37966U 93036BPR 25347.36919506  .00090719  00000+0  51051-2 0  9991",
        "tle_line2": "2 37966  73.9781 229.2381 0008803 105.8293 254.3871 15.12754556853526"
      },
      "geometry": {
        "type": "Point",
        "coordinates": [
          38.65145593699751,
          14.736296479427343
        ]
      }
    },
    {
      "type": "Feature",
      "properties": {
        "norad_id": 37967,
        "name": "COSMOS 2251 DEB",
        "group": "cosmos-2251-debris",
        "lat": -32.23904037213525,
        "lon": 120.23290890544904,
        "alt_km": 703.8276429523657,
        "timestamp": "2025-12-16T08:59:43.559484+00:00",
        "meta_object_name": "COSMOS 2251 DEB",
        "meta_object_id": "1993-036BPS",
        "meta_epoch": "2025-12-15T09:48:59.212224",
        "meta_mean_motion": 14.40546786,
        "meta_eccentricity": 0.01508745,
        "meta_inclination": 74.0141,
        "meta_ra_of_asc_node": 132.4376,
        "meta_arg_of_pericenter": 270.6465,
        "meta_mean_anomaly": 87.7405,
        "meta_ephemeris_type": 0,
        "meta_classification_type": "U",
        "meta_norad_cat_id": 37967,
        "meta_element_set_no": 999,
        "meta_rev_at_epoch": 64774,
        "meta_bstar": 0.001082904,
        "meta_mean_motion_dot": 3.918e-05,
        "meta_mean_motion_ddot": 0,
        "tle_line1": "1 37967U 93036BPS 25349.40901866  .00003918  00000+0  10829-2 0  9992",
        "tle_line2": "2 37967  74.0141 132.4376 0150874 270.6465  87.7405 14.40546786647746"
      },
      "geometry": {
        "type": "Point",
        "coordinates": [
          120.23290890544904,
          -32.23904037213525
        ]
      }
    },
    {
      "type": "Feature",
      "properties": {
        "norad_id": 37968,
        "name": "COSMOS 2251 DEB",
        "group": "cosmos-2251-debris",
        "lat": -2.981570410407454,
        "lon": 84.6042820581654,
        "alt_km": 621.2862164359194,
        "timestamp": "2025-12-16T08:59:43.559495+00:00",
        "meta_object_name": "COSMOS 2251 DEB",
        "meta_object_id": "1993-036BPT",
        "meta_epoch": "2025-12-13T01:47:19.904352",
        "meta_mean_motion": 15.00631404,
        "meta_eccentricity": 0.00804189,
        "meta_inclination": 74.0008,
        "meta_ra_of_asc_node": 270.4748,
        "meta_arg_of_pericenter": 26.0645,
        "meta_mean_anomaly": 334.4556,
        "meta_ephemeris_type": 0,
        "meta_classification_type": "U",
        "meta_norad_cat_id": 37968,
        "meta_element_set_no": 999,
        "meta_rev_at_epoch": 60224,
        "meta_bstar": 0.001541289,
        "meta_mean_motion_dot": 0.00020898,
        "meta_mean_motion_ddot": 0,
        "tle_line1": "1 37968U 93036BPT 25347.07453593  .00020898  00000+0  15413-2 0  9993",
        "tle_line2": "2 37968  74.0008 270.4748 0080418  26.0645 334.4556 15.00631404602248"
      },
      "geometry": {
        "type": "Point",
        "coordinates": [
          84.6042820581654,
          -2.981570410407454
        ]
      }
    },
    {
      "type": "Feature",
      "properties": {
        "norad_id": 37971,
        "name": "COSMOS 2251 DEB",
        "group": "cosmos-2251-debris",
        "lat": 37.96672792123324,
        "lon": -158.0330860485681,
        "alt_km": 686.8677985212425,
        "timestamp": "2025-12-16T08:59:43.559505+00:00",
        "meta_object_name": "COSMOS 2251 DEB",
        "meta_object_id": "1993-036BPW",
        "meta_epoch": "2025-12-15T20:44:52.764576",
        "meta_mean_motion": 14.48694104,
        "meta_eccentricity": 0.00668395,
        "meta_inclination": 73.9939,
        "meta_ra_of_asc_node": 35.8693,
        "meta_arg_of_pericenter": 174.332,
        "meta_mean_anomaly": 185.8612,
        "meta_ephemeris_type": 0,
        "meta_classification_type": "U",
        "meta_norad_cat_id": 37971,
        "meta_element_set_no": 999,
        "meta_rev_at_epoch": 60723,
        "meta_bstar": 0.0012835139,
        "meta_mean_motion_dot": 4.95e-05,
        "meta_mean_motion_ddot": 0,
        "tle_line1": "1 37971U 93036BPW 25349.86449959  .00004950  00000+0  12835-2 0  9993",
        "tle_line2": "2 37971  73.9939  35.8693 0066839 174.3320 185.8612 14.48694104607235"
      },
      "geometry": {
        "type": "Point",
        "coordinates": [
          -158.0330860485681,
          37.96672792123324
        ]
      }
    },
    {
      "type": "Feature",
      "properties": {
        "norad_id": 37975,
        "name": "COSMOS 2251 DEB",
        "group": "cosmos-2251-debris",
        "lat": 27.542843904047363,
        "lon": -34.45703069555683,
        "alt_km": 631.2802451181406,
        "timestamp": "2025-12-16T08:59:43.559516+00:00",
        "meta_object_name": "COSMOS 2251 DEB",
        "meta_object_id": "1993-036BQA",
        "meta_epoch": "2025-12-13T15:48:30.179232",
        "meta_mean_motion": 14.76130148,
        "meta_eccentricity": 0.00956338,
        "meta_inclination": 74.0029,
        "meta_ra_of_asc_node": 322.2658,
        "meta_arg_of_pericenter": 311.4373,
        "meta_mean_anomaly": 47.8613,
        "meta_ephemeris_type": 0,
        "meta_classification_type": "U",
        "meta_norad_cat_id": 37975,
        "meta_element_set_no": 999,
        "meta_rev_at_epoch": 69759,
        "meta_bstar": 0.0039912819,
        "meta_mean_motion_dot": 0.00029805,
        "meta_mean_motion_ddot": 0,
        "tle_line1": "1 37975U 93036BQA 25347.65868263  .00029805  00000+0  39913-2 0  9997",
        "tle_line2": "2 37975  74.0029 322.2658 0095633 311.4373  47.8613 14.76130148697591"
      },
      "geometry": {
        "type": "Point",
        "coordinates": [
          -34.45703069555683,
          27.542843904047363
        ]
      }
    },
    {
      "type": "Feature",
      "properties": {
        "norad_id": 37978,
        "name": "COSMOS 2251 DEB",
        "group": "cosmos-2251-debris",
        "lat": -69.30833440643065,
        "lon": 31.35608064884483,
        "alt_km": 297.19807289205255,
        "timestamp": "2025-12-16T08:59:43.559526+00:00",
        "meta_object_name": "COSMOS 2251 DEB",
        "meta_object_id": "1993-036BQD",
        "meta_epoch": "2025-11-19T05:08:53.100672",
        "meta_mean_motion": 15.61137081,
        "meta_eccentricity": 0.00148985,
        "meta_inclination": 74.0238,
        "meta_ra_of_asc_node": 142.2198,
        "meta_arg_of_pericenter": 140.9849,
        "meta_mean_anomaly": 219.2448,
        "meta_ephemeris_type": 0,
        "meta_classification_type": "U",
        "meta_norad_cat_id": 37978,
        "meta_element_set_no": 999,
        "meta_rev_at_epoch": 8032,
        "meta_bstar": 0.0043958825,
        "meta_mean_motion_dot": 0.0039117,
        "meta_mean_motion_ddot": 0,
        "tle_line1": "1 37978U 93036BQD 25323.21450348  .00391170  00000+0  43959-2 0  9999",
        "tle_line2": "2 37978  74.0238 142.2198 0014898 140.9849 219.2448 15.61137081 80328"
      },
      "geometry": {
        "type": "Point",
        "coordinates": [
          31.35608064884483,
          -69.30833440643065
        ]
      }
    }
  ]
}